{
    "links": {
        "self": "http://www.neowsapp.com/rest/v1/neo/3829480?api_key=iIulBulltgU6a56xZRHN4H3l9WmuAYTsLGpBGhQ2"
    },
    "id": "3829480",
    "neo_reference_id": "3829480",
    "name": "(2018 RS7)",
    "designation": "2018 RS7",
    "nasa_jpl_url": "http://ssd.jpl.nasa.gov/sbdb.cgi?sstr=3829480",
    "absolute_magnitude_h": 25.5,
    "estimated_diameter": {
        "kilometers": {
            "estimated_diameter_min": 0.0211132445,
            "estimated_diameter_max": 0.0472106499
        },
        "meters": {
            "estimated_diameter_min": 21.113244479,
            "estimated_diameter_max": 47.2106498806
        },
        "miles": {
            "estimated_diameter_min": 0.0131191578,
            "estimated_diameter_max": 0.0293353287
        },
        "feet": {
            "estimated_diameter_min": 69.2691770164,
            "estimated_diameter_max": 154.8905885541
        }
    },
    "is_potentially_hazardous_asteroid": false,
    "close_approach_data": [
        {
            "close_approach_date": "2018-09-21",
            "close_approach_date_full": "2018-Sep-21 01:42",
            "epoch_date_close_approach": 1537494120000,
            "relative_velocity": {
                "kilometers_per_second": "4.898008011",
                "kilometers_per_hour": "17632.8288394497",
                "miles_per_hour": "10956.3541197125"
            },
            "miss_distance": {
                "astronomical": "0.1587585258",
                "lunar": "61.7570665362",
                "kilometers": "23749937.304020046",
                "miles": "14757526.7251107948"
            },
            "orbiting_body": "Earth"
        }
    ],
    "orbital_data": {
        "orbit_id": "3",
        "orbit_determination_date": "2018-10-07 06:47:21",
        "first_observation_date": "2018-09-13",
        "last_observation_date": "2018-10-05",
        "data_arc_in_days": 22,
        "observations_used": 22,
        "orbit_uncertainty": "8",
        "minimum_orbit_intersection": ".158113",
        "jupiter_tisserand_invariant": "3.386",
        "epoch_osculation": "2458395.5",
        "eccentricity": ".5026401695539627",
        "semi_major_axis": "2.33073773761752",
        "inclination": "4.42393990725592",
        "ascending_node_longitude": "342.251706253551",
        "orbital_period": "1299.686293471064",
        "perihelion_distance": "1.15921532599563",
        "perihelion_argument": "20.48717231957268",
        "aphelion_distance": "3.502260149239409",
        "perihelion_time": "2458386.707615882311",
        "mean_anomaly": "2.435401756769016",
        "mean_motion": ".2769899181121241",
        "equinox": "J2000",
        "orbit_class": {
            "orbit_class_type": "AMO",
            "orbit_class_description": "Near-Earth asteroid orbits similar to that of 1221 Amor",
            "orbit_class_range": "1.017 AU < q (perihelion) < 1.3 AU"
        }
    },
    "is_sentry_object": false
}